OBJECT_NAME,OBJECT_ID,EPOCH,MEAN_MOTION,ECCENTRICITY,INCLINATION,RA_OF_ASC_NODE,ARG_OF_PERICENTER,MEAN_ANOMALY,EPHEMERIS_TYPE,CLASSIFICATION_TYPE,NORAD_CAT_ID,ELEMENT_SET_NO,REV_AT_EPOCH,BSTAR,MEAN_MOTION_DOT,MEAN_MOTION_DDOT
CUBEBUG-2 (LO-74),2013-066AA,2026-07-12T07:33:50.653440,14.93955186,.00559859,97.8909,142.4045,305.1332,54.4648,0,U,39440,999,68074,.17183435E-3,.1823E-4,0
FUNCUBE-1 (AO-73),2013-066AE,2026-07-11T21:54:09.783072,15.09793381,.0037972,97.8287,164.8814,118.2418,242.2652,0,U,39444,999,68339,.24262E-3,.3917E-4,0
UWE-3,2013-066AG,2026-07-11T19:28:32.557152,14.97185641,.00475172,97.8698,149.0559,236.3304,123.3381,0,U,39446,999,68126,.15712987E-3,.1794E-4,0
UNISAT-6,2014-033C,2026-07-12T05:03:22.789152,14.88359055,.00444261,97.7904,345.4875,347.7479,12.2654,0,U,40012,999,64988,.13418868E-3,.1207E-4,0
DUCHIFAT-1,2014-033M,2026-07-11T15:59:20.150016,15.70315468,.00019202,98.0458,255.3713,269.1618,90.9422,0,U,40021,999,65958,.7760435E-3,.95138E-3,0
QB50P1,2014-033R,2026-07-11T23:50:51.841248,15.18635038,.00101635,98.0966,205.8851,134.1703,226.0367,0,U,40025,999,65679,.25073799E-3,.5121E-4,0
LILACSAT-2,2015-049K,2026-07-12T08:31:40.147392,15.52289402,.00082273,97.4630,231.1631,149.7784,210.3944,0,U,40908,999,59965,.20957522E-3,.12658E-3,0
FOX-1A (AO-85),2015-058D,2026-07-12T00:50:37.737600,14.91076787,.0132122,64.7730,201.7566,46.9965,314.2129,0,U,40967,999,11727,.16263578E-3,.1727E-4,0
CAS-2T & KS-1Q,2016-066G,2026-07-12T04:09:30.210912,14.44766328,.03423985,98.3814,268.6236,53.9111,309.3277,0,U,41847,999,50840,.95448857E-4,.623E-5,0
RADFXSAT (FOX-1B),2017-073E,2026-07-12T01:50:41.589600,15.13035809,.01480861,97.4678,59.7847,242.3404,116.2732,0,U,43017,999,46915,.15679928E-3,.355E-4,0
DIWATA-2B,2018-084H,2026-07-12T07:26:46.104576,15.00556212,.00129794,98.1221,30.6185,93.2241,267.0467,0,U,43678,999,41998,.10092143E-3,.1209E-4,0
ES'HAIL 2,2018-090A,2026-07-12T05:04:47.607168,1.00269523,.00021713,0.0282,45.8671,114.4474,231.7884,0,U,43700,999,2792,0,0,0
FOX-1CLIFF (AO-95),2018-099N,2026-07-12T02:39:13.856256,15.27232320,.00070528,97.4378,253.2714,252.7613,107.2854,0,U,43770,999,41702,.26835197E-3,.7092E-4,0
ITASAT,2018-099AE,2026-07-12T02:47:47.467968,15.19358576,.00108039,97.4020,244.1331,262.7378,97.2629,0,U,43786,999,41669,.17556651E-3,.3649E-4,0
JY1SAT (JO-97),2018-099AX,2026-07-11T16:29:36.040416,15.34443331,.00065178,97.4124,255.6172,168.9842,191.1545,0,U,43803,999,41738,.301087E-3,.9972E-4,0
UWE-4,2018-111E,2026-07-12T05:58:38.177472,15.47689372,.00057349,97.5842,122.8225,206.6658,153.4298,0,U,43880,999,41465,.39696767E-3,.20464E-3,0
TIANYAN 01,2019-093C,2026-07-12T06:52:44.482080,14.86558020,.00138336,97.7525,264.9054,10.8751,349.2762,0,U,44881,999,35514,.8062183E-4,.662E-5,0
RS-44 & BREEZE-KM R/B,2019-096E,2026-07-12T08:03:27.806400,12.79748966,.02185566,82.5240,322.9939,85.6460,276.9578,0,U,44909,999,30556,-.59238588E-4,-.2E-7,0
SALSAT,2020-068K,2026-07-11T12:58:29.571456,15.30139435,.00088233,97.8855,197.0941,206.5203,153.5586,0,U,46495,999,31908,.15528118E-3,.4447E-4,0
XW-3 (CAS-9),2021-131B,2026-07-12T07:45:06.191712,14.41379736,.0004739,98.4985,285.5771,38.2206,321.9318,0,U,50466,999,23873,.31009647E-4,.56E-6,0
GREENCUBE (IO-117),2022-080E,2026-07-12T05:48:08.210880,6.42583320,.0009038,70.1417,289.5333,284.1760,75.7895,0,U,53109,999,9367,0,-.3E-7,0
UMKA 1 (RS40S),2023-091G,2026-07-12T06:59:38.768352,15.21101376,.00133146,97.5041,251.8943,39.0975,321.1220,0,U,57172,999,16782,.15927045E-3,.3479E-4,0
CUBESX-HSE 3 (RS42S),2023-091N,2026-07-12T06:18:37.812960,15.31838057,.0009974,97.5086,259.1755,12.5773,347.5715,0,U,57178,999,16826,.25768128E-3,.7853E-4,0
MONITOR-3 (RS58S),2023-091Q,2026-07-12T05:06:27.707616,15.28335579,.00113228,97.5077,256.8485,20.1738,339.9947,0,U,57180,999,16811,.21677757E-3,.5915E-4,0
MONITOR-4 (RS57S),2023-091S,2026-07-12T06:08:34.440288,15.28422440,.00113174,97.5071,256.8646,20.3859,339.7830,0,U,57182,999,16812,.22425619E-3,.6139E-4,0
MONITOR-2 (RS39S),2023-091U,2026-07-12T05:06:34.173792,15.19137727,.00116764,97.5063,251.3353,33.7400,326.4575,0,U,57184,999,16775,.13349833E-3,.2739E-4,0
SVYATOBOR 1 (RS60S),2023-091X,2026-07-12T05:24:59.457024,15.27032064,.00090465,97.5083,257.1859,15.0237,345.1269,0,U,57187,999,16813,.19113373E-3,.4999E-4,0
VIZARD-METEO (RS38S),2023-091Z,2026-07-12T05:19:42.314592,15.36813208,.0005917,97.5086,263.2207,351.9878,8.1270,0,U,57189,999,16853,.28546344E-3,.10194E-3,0
POLYTECH-UNIVERSE 3 (RS46S),2023-091AB,2026-07-12T07:15:40.752864,15.19349934,.0016302,97.5038,250.9286,47.2075,313.0528,0,U,57191,999,16776,.14775867E-3,.3063E-4,0
UTMN 2 (RS27S),2023-091AP,2026-07-12T06:24:28.458720,15.32656696,.00070276,97.5082,260.8438,1.1566,358.9690,0,U,57203,999,16838,.24620658E-3,.7689E-4,0
