CUBEBUG-2 (LO-74)       
1 39440U 13066AA  26193.31516960  .00001823  00000+0  17183-3 0  9994
2 39440  97.8909 142.4045 0055985 305.1332  54.4648 14.93955186680740
FUNCUBE-1 (AO-73)       
1 39444U 13066AE  26192.91261323  .00003917  00000+0  24262-3 0  9995
2 39444  97.8287 164.8814 0037972 118.2418 242.2652 15.09793381683390
UWE-3                   
1 39446U 13066AG  26192.81148793  .00001794  00000+0  15713-3 0  9993
2 39446  97.8698 149.0559 0047517 236.3304 123.3381 14.97185641681263
UNISAT-6                
1 40012U 14033C   26193.21068043  .00001207  00000+0  13419-3 0  9993
2 40012  97.7904 345.4875 0044426 347.7479  12.2654 14.88359055649885
DUCHIFAT-1              
1 40021U 14033M   26192.66620544  .00095138  00000+0  77604-3 0  9993
2 40021  98.0458 255.3713 0001920 269.1618  90.9422 15.70315468659583
QB50P1                  
1 40025U 14033R   26192.99365557  .00005121  00000+0  25074-3 0  9990
2 40025  98.0966 205.8851 0010163 134.1703 226.0367 15.18635038656799
LILACSAT-2              
1 40908U 15049K   26193.35532578  .00012658  00000+0  20958-3 0  9997
2 40908  97.4630 231.1631 0008227 149.7784 210.3944 15.52289402599653
FOX-1A (AO-85)          
1 40967U 15058D   26193.03515900  .00001727  00000+0  16264-3 0  9997
2 40967  64.7730 201.7566 0132122  46.9965 314.2129 14.91076787117272
CAS-2T & KS-1Q          
1 41847U 16066G   26193.17326633  .00000623  00000+0  95449-4 0  9990
2 41847  98.3814 268.6236 0342398  53.9111 309.3277 14.44766328508404
RADFXSAT (FOX-1B)       
1 43017U 17073E   26193.07687025  .00003550  00000+0  15680-3 0  9994
2 43017  97.4678  59.7847 0148086 242.3404 116.2732 15.13035809469156
DIWATA-2B               
1 43678U 18084H   26193.31025584  .00001209  00000+0  10092-3 0  9994
2 43678  98.1221  30.6185 0012979  93.2241 267.0467 15.00556212419985
ES'HAIL 2               
1 43700U 18090A   26193.21166212  .00000000  00000+0  00000+0 0  9992
2 43700   0.0282  45.8671 0002171 114.4474 231.7884  1.00269523 27926
FOX-1CLIFF (AO-95)      
1 43770U 18099N   26193.11057704  .00007092  00000+0  26835-3 0  9998
2 43770  97.4378 253.2714 0007052 252.7613 107.2854 15.27232320417023
ITASAT                  
1 43786U 18099AE  26193.11652162  .00003649  00000+0  17557-3 0  9999
2 43786  97.4020 244.1331 0010803 262.7378  97.2629 15.19358576416698
JY1SAT (JO-97)          
1 43803U 18099AX  26192.68722269  .00009972  00000+0  30109-3 0  9999
2 43803  97.4124 255.6172 0006517 168.9842 191.1545 15.34443331417382
UWE-4                   
1 43880U 18111E   26193.24905298  .00020464  00000+0  39697-3 0  9997
2 43880  97.5842 122.8225 0005734 206.6658 153.4298 15.47689372414658
TIANYAN 01              
1 44881U 19093C   26193.28662595  .00000662  00000+0  80622-4 0  9996
2 44881  97.7525 264.9054 0013833  10.8751 349.2762 14.86558020355142
RS-44 & BREEZE-KM R/B   
1 44909U 19096E   26193.33573850 -.00000002  00000+0 -59239-4 0  9991
2 44909  82.5240 322.9939 0218556  85.6460 276.9578 12.79748966305564
SALSAT                  
1 46495U 20068K   26192.54062004  .00004447  00000+0  15528-3 0  9997
2 46495  97.8855 197.0941 0008823 206.5203 153.5586 15.30139435319080
XW-3 (CAS-9)            
1 50466U 21131B   26193.32298833  .00000056  00000+0  31010-4 0  9997
2 50466  98.4985 285.5771 0004739  38.2206 321.9318 14.41379736238730
GREENCUBE (IO-117)      
1 53109U 22080E   26193.24176170 -.00000003  00000+0  00000+0 0  9991
2 53109  70.1417 289.5333 0009038 284.1760  75.7895  6.42583320 93670
UMKA 1 (RS40S)          
1 57172U 23091G   26193.29142093  .00003479  00000+0  15927-3 0  9997
2 57172  97.5041 251.8943 0013314  39.0975 321.1220 15.21101376167829
CUBESX-HSE 3 (RS42S)    
1 57178U 23091N   26193.26293765  .00007853  00000+0  25768-3 0  9997
2 57178  97.5086 259.1755 0009974  12.5773 347.5715 15.31838057168269
MONITOR-3 (RS58S)       
1 57180U 23091Q   26193.21282069  .00005915  00000+0  21678-3 0  9993
2 57180  97.5077 256.8485 0011322  20.1738 339.9947 15.28335579168115
MONITOR-4 (RS57S)       
1 57182U 23091S   26193.25595417  .00006139  00000+0  22426-3 0  9994
2 57182  97.5071 256.8646 0011317  20.3859 339.7830 15.28422440168124
MONITOR-2 (RS39S)       
1 57184U 23091U   26193.21289553  .00002739  00000+0  13350-3 0  9991
2 57184  97.5063 251.3353 0011676  33.7400 326.4575 15.19137727167758
SVYATOBOR 1 (RS60S)     
1 57187U 23091X   26193.22568816  .00004999  00000+0  19113-3 0  9990
2 57187  97.5083 257.1859 0009046  15.0237 345.1269 15.27032064168135
VIZARD-METEO (RS38S)    
1 57189U 23091Z   26193.22201753  .00010194  00000+0  28546-3 0  9990
2 57189  97.5086 263.2207 0005917 351.9878   8.1270 15.36813208168530
POLYTECH-UNIVERSE 3 (R*)
1 57191U 23091AB  26193.30255501  .00003063  00000+0  14776-3 0  9999
2 57191  97.5038 250.9286 0016302  47.2075 313.0528 15.19349934167763
UTMN 2 (RS27S)          
1 57203U 23091AP  26193.26699605  .00007689  00000+0  24621-3 0  9993
2 57203  97.5082 260.8438 0007027   1.1566 358.9690 15.32656696168381
